start=new Date('2022-07-13T00:00:00.000Z').valueOf();
sats=[{"GP_ID":"207968165","APOAPSIS":"548.200","DECAY_DATE":null,"REV_AT_EPOCH":"8300","INCLINATION":"53.0543","CENTER_NAME":"EARTH","MEAN_MOTION":"15.06397929","ELEMENT_SET_NO":"999","EPOCH":"2022-07-12T12:02:29.037408","TLE_LINE1":"1 47382U 21005AK  22193.50172497  .00001889  00000-0  14569-3 0  9998","OBJECT_TYPE":"PAYLOAD","EPHEMERIS_TYPE":"0","PERIAPSIS":"546.240","MEAN_ELEMENT_THEORY":"SGP4","FILE":"3512184","OBJECT_NAME":"STARLINK-2102","MEAN_MOTION_DDOT":"0.0000000000000","REF_FRAME":"TEME","PERIOD":"95.592","ARG_OF_PERICENTER":"75.7009","SITE":"AFETR","COUNTRY_CODE":"US","MEAN_ANOMALY":"284.4137","CLASSIFICATION_TYPE":"U","SEMIMAJOR_AXIS":"6925.355","TLE_LINE2":"2 47382  53.0543 270.0099 0001415  75.7009 284.4137 15.06397929 83003","LAUNCH_DATE":"2021-01-20","RA_OF_ASC_NODE":"270.0099","MEAN_MOTION_DOT":"0.00001889","ECCENTRICITY":"0.00014150","NORAD_CAT_ID":"47382","OBJECT_ID":"2021-005AK","BSTAR":"0.00014569000000","TIME_SYSTEM":"UTC","RCS_SIZE":"LARGE"},{"MEAN_ELEMENT_THEORY":"SGP4","OBJECT_NAME":"STARLINK-2103","FILE":"3512432","EPOCH":"2022-07-12T12:29:00.442464","TLE_LINE1":"1 47383U 21005AL  22193.52014401  .00013002  00000-0  88977-3 0  9995","EPHEMERIS_TYPE":"0","OBJECT_TYPE":"PAYLOAD","PERIAPSIS":"545.978","MEAN_MOTION":"15.06415894","ELEMENT_SET_NO":"999","INCLINATION":"53.0524","CENTER_NAME":"EARTH","APOAPSIS":"548.352","DECAY_DATE":null,"REV_AT_EPOCH":"8221","GP_ID":"207999357","RCS_SIZE":"LARGE","BSTAR":"0.00088977000000","TIME_SYSTEM":"UTC","NORAD_CAT_ID":"47383","OBJECT_ID":"2021-005AL","RA_OF_ASC_NODE":"259.9288","MEAN_MOTION_DOT":"0.00013002","ECCENTRICITY":"0.00017140","SEMIMAJOR_AXIS":"6925.300","CLASSIFICATION_TYPE":"U","TLE_LINE2":"2 47383  53.0524 259.9288 0001714  66.9653 293.1516 15.06415894 82210","LAUNCH_DATE":"2021-01-20","PERIOD":"95.591","SITE":"AFETR","ARG_OF_PERICENTER":"66.9653","COUNTRY_CODE":"US","MEAN_ANOMALY":"293.1516","MEAN_MOTION_DDOT":"0.0000000000000","REF_FRAME":"TEME"},{"ELEMENT_SET_NO":"999","MEAN_MOTION":"15.06434415","PERIAPSIS":"545.995","EPOCH":"2022-07-12T16:27:55.812960","TLE_LINE1":"1 47384U 21005AM  22193.68606265  .00016773  00000-0  11412-2 0  9995","EPHEMERIS_TYPE":"0","OBJECT_TYPE":"PAYLOAD","MEAN_ELEMENT_THEORY":"SGP4","FILE":"3512432","OBJECT_NAME":"STARLINK-2104","GP_ID":"207997623","DECAY_DATE":null,"REV_AT_EPOCH":"8209","APOAPSIS":"548.221","INCLINATION":"53.0532","CENTER_NAME":"EARTH","NORAD_CAT_ID":"47384","OBJECT_ID":"2021-005AM","TIME_SYSTEM":"UTC","BSTAR":"0.00114120000000","RCS_SIZE":"LARGE","MEAN_MOTION_DDOT":"0.0000000000000","REF_FRAME":"TEME","COUNTRY_CODE":"US","MEAN_ANOMALY":"292.2453","PERIOD":"95.590","SITE":"AFETR","ARG_OF_PERICENTER":"67.8707","LAUNCH_DATE":"2021-01-20","CLASSIFICATION_TYPE":"U","SEMIMAJOR_AXIS":"6925.243","TLE_LINE2":"2 47384  53.0532 269.4138 0001607  67.8707 292.2453 15.06434415 82097","MEAN_MOTION_DOT":"0.00016773","ECCENTRICITY":"0.00016070","RA_OF_ASC_NODE":"269.4138"},{"OBJECT_NAME":"STARLINK-2105","FILE":"3512432","MEAN_ELEMENT_THEORY":"SGP4","MEAN_MOTION":"15.06423151","ELEMENT_SET_NO":"999","TLE_LINE1":"1 47385U 21005AN  22193.68234666  .00013829  00000-0  94486-3 0  9990","EPHEMERIS_TYPE":"0","OBJECT_TYPE":"PAYLOAD","EPOCH":"2022-07-12T16:22:34.751424","PERIAPSIS":"546.136","INCLINATION":"53.0529","CENTER_NAME":"EARTH","GP_ID":"207997873","APOAPSIS":"548.149","REV_AT_EPOCH":"8209","DECAY_DATE":null,"BSTAR":"0.00094486000000","TIME_SYSTEM":"UTC","RCS_SIZE":"LARGE","OBJECT_ID":"2021-005AN","NORAD_CAT_ID":"47385","TLE_LINE2":"2 47385  53.0529 269.1987 0001453  59.2530 300.8602 15.06423151 82098","SEMIMAJOR_AXIS":"6925.278","CLASSIFICATION_TYPE":"U","LAUNCH_DATE":"2021-01-20","RA_OF_ASC_NODE":"269.1987","ECCENTRICITY":"0.00014530","MEAN_MOTION_DOT":"0.00013829","MEAN_MOTION_DDOT":"0.0000000000000","REF_FRAME":"TEME","ARG_OF_PERICENTER":"59.2530","SITE":"AFETR","PERIOD":"95.591","MEAN_ANOMALY":"300.8602","COUNTRY_CODE":"US"},{"PERIAPSIS":"545.982","EPOCH":"2022-07-13T04:13:48.223776","EPHEMERIS_TYPE":"0","TLE_LINE1":"1 47386U 21005AP  22194.17625259  .00001388  00000-0  11207-3 0  9995","OBJECT_TYPE":"PAYLOAD","ELEMENT_SET_NO":"999","MEAN_MOTION":"15.06397032","MEAN_ELEMENT_THEORY":"SGP4","OBJECT_NAME":"STARLINK-2106","FILE":"3512509","DECAY_DATE":null,"REV_AT_EPOCH":"8279","APOAPSIS":"548.463","GP_ID":"208004004","INCLINATION":"53.0552","CENTER_NAME":"EARTH","NORAD_CAT_ID":"47386","OBJECT_ID":"2021-005AP","RCS_SIZE":"LARGE","TIME_SYSTEM":"UTC","BSTAR":"0.00011207000000","COUNTRY_CODE":"US","MEAN_ANOMALY":"300.3124","PERIOD":"95.592","SITE":"AFETR","ARG_OF_PERICENTER":"59.8042","MEAN_MOTION_DDOT":"0.0000000000000","REF_FRAME":"TEME","MEAN_MOTION_DOT":"0.00001388","ECCENTRICITY":"0.00017910","RA_OF_ASC_NODE":"266.9790","LAUNCH_DATE":"2021-01-20","CLASSIFICATION_TYPE":"U","SEMIMAJOR_AXIS":"6925.358","TLE_LINE2":"2 47386  53.0552 266.9790 0001791  59.8042 300.3124 15.06397032 82790"},{"MEAN_MOTION_DOT":"0.00003067","ECCENTRICITY":"0.00012410","RA_OF_ASC_NODE":"298.8206","LAUNCH_DATE":"2021-01-20","CLASSIFICATION_TYPE":"U","SEMIMAJOR_AXIS":"6925.322","TLE_LINE2":"2 47387  53.0546 298.8206 0001241  87.6331 272.4800 15.06408659 81685","COUNTRY_CODE":"US","MEAN_ANOMALY":"272.4800","PERIOD":"95.592","SITE":"AFETR","ARG_OF_PERICENTER":"87.6331","MEAN_MOTION_DDOT":"0.0000000000000","REF_FRAME":"TEME","RCS_SIZE":"LARGE","TIME_SYSTEM":"UTC","BSTAR":"0.00022466000000","NORAD_CAT_ID":"47387","OBJECT_ID":"2021-005AQ","CENTER_NAME":"EARTH","INCLINATION":"53.0546","DECAY_DATE":null,"REV_AT_EPOCH":"8168","APOAPSIS":"548.046","GP_ID":"207998858","MEAN_ELEMENT_THEORY":"SGP4","OBJECT_NAME":"STARLINK-2108","FILE":"3512432","PERIAPSIS":"546.328","EPOCH":"2022-07-12T18:20:39.420960","TLE_LINE1":"1 47387U 21005AQ  22193.76434515  .00003067  00000-0  22466-3 0  9998","EPHEMERIS_TYPE":"0","OBJECT_TYPE":"PAYLOAD","ELEMENT_SET_NO":"999","MEAN_MOTION":"15.06408659"},{"GP_ID":"207998122","DECAY_DATE":null,"REV_AT_EPOCH":"8168","APOAPSIS":"547.812","INCLINATION":"53.0542","CENTER_NAME":"EARTH","ELEMENT_SET_NO":"999","MEAN_MOTION":"15.06448921","PERIAPSIS":"546.315","EPOCH":"2022-07-12T18:41:53.958336","EPHEMERIS_TYPE":"0","TLE_LINE1":"1 47388U 21005AR  22193.77909674  .00040857  00000-0  27423-2 0  9998","OBJECT_TYPE":"PAYLOAD","MEAN_ELEMENT_THEORY":"SGP4","FILE":"3512432","OBJECT_NAME":"STARLINK-2109","MEAN_MOTION_DDOT":"0.0000000000000","REF_FRAME":"TEME","COUNTRY_CODE":"US","MEAN_ANOMALY":"305.7242","PERIOD":"95.589","SITE":"AFETR","ARG_OF_PERICENTER":"54.3848","LAUNCH_DATE":"2021-01-20","SEMIMAJOR_AXIS":"6925.199","CLASSIFICATION_TYPE":"U","TLE_LINE2":"2 47388  53.0542 298.7550 0001081  54.3848 305.7242 15.06448921 81685","MEAN_MOTION_DOT":"0.00040857","ECCENTRICITY":"0.00010810","RA_OF_ASC_NODE":"298.7550","NORAD_CAT_ID":"47388","OBJECT_ID":"2021-005AR","TIME_SYSTEM":"UTC","BSTAR":"0.00274230000000","RCS_SIZE":"LARGE"},{"FILE":"3512432","OBJECT_NAME":"STARLINK-2110","MEAN_ELEMENT_THEORY":"SGP4","ELEMENT_SET_NO":"999","MEAN_MOTION":"15.06408999","PERIAPSIS":"546.117","TLE_LINE1":"1 47389U 21005AS  22193.75787876  .00005833  00000-0  41004-3 0  9992","OBJECT_TYPE":"PAYLOAD","EPHEMERIS_TYPE":"0","EPOCH":"2022-07-12T18:11:20.724864","INCLINATION":"53.0552","CENTER_NAME":"EARTH","GP_ID":"207998372","REV_AT_EPOCH":"8196","DECAY_DATE":null,"APOAPSIS":"548.255","TIME_SYSTEM":"UTC","BSTAR":"0.00041004000000","RCS_SIZE":"LARGE","OBJECT_ID":"2021-005AS","NORAD_CAT_ID":"47389","LAUNCH_DATE":"2021-01-20","TLE_LINE2":"2 47389  53.0552 278.8476 0001544  54.3941 305.7192 15.06408999 81967","CLASSIFICATION_TYPE":"U","SEMIMAJOR_AXIS":"6925.321","ECCENTRICITY":"0.00015440","MEAN_MOTION_DOT":"0.00005833","RA_OF_ASC_NODE":"278.8476","REF_FRAME":"TEME","MEAN_MOTION_DDOT":"0.0000000000000","MEAN_ANOMALY":"305.7192","COUNTRY_CODE":"US","ARG_OF_PERICENTER":"54.3941","SITE":"AFETR","PERIOD":"95.592"},{"GP_ID":"207968166","REV_AT_EPOCH":"8165","DECAY_DATE":null,"APOAPSIS":"548.191","INCLINATION":"53.0541","CENTER_NAME":"EARTH","ELEMENT_SET_NO":"999","MEAN_MOTION":"15.06431162","PERIAPSIS":"546.045","OBJECT_TYPE":"PAYLOAD","TLE_LINE1":"1 47390U 21005AT  22193.55425858  .00012838  00000-0  87845-3 0  9997","EPHEMERIS_TYPE":"0","EPOCH":"2022-07-12T13:18:07.941312","FILE":"3512184","OBJECT_NAME":"STARLINK-2111","MEAN_ELEMENT_THEORY":"SGP4","MEAN_MOTION_DDOT":"0.0000000000000","REF_FRAME":"TEME","MEAN_ANOMALY":"282.4226","COUNTRY_CODE":"US","SITE":"AFETR","ARG_OF_PERICENTER":"77.6937","PERIOD":"95.590","LAUNCH_DATE":"2021-01-20","TLE_LINE2":"2 47390  53.0541 299.7734 0001550  77.6937 282.4226 15.06431162 81659","SEMIMAJOR_AXIS":"6925.253","CLASSIFICATION_TYPE":"U","ECCENTRICITY":"0.00015500","MEAN_MOTION_DOT":"0.00012838","RA_OF_ASC_NODE":"299.7734","OBJECT_ID":"2021-005AT","NORAD_CAT_ID":"47390","TIME_SYSTEM":"UTC","BSTAR":"0.00087845000000","RCS_SIZE":"LARGE"},{"ECCENTRICITY":"0.00018920","MEAN_MOTION_DOT":"0.00005703","RA_OF_ASC_NODE":"269.1367","LAUNCH_DATE":"2021-01-20","TLE_LINE2":"2 47391  53.0526 269.1367 0001892  67.4871 292.6318 15.06409783 82097","CLASSIFICATION_TYPE":"U","SEMIMAJOR_AXIS":"6925.319","MEAN_ANOMALY":"292.6318","COUNTRY_CODE":"US","SITE":"AFETR","ARG_OF_PERICENTER":"67.4871","PERIOD":"95.592","REF_FRAME":"TEME","MEAN_MOTION_DDOT":"0.0000000000000","RCS_SIZE":"LARGE","TIME_SYSTEM":"UTC","BSTAR":"0.00040135000000","OBJECT_ID":"2021-005AU","NORAD_CAT_ID":"47391","INCLINATION":"53.0526","CENTER_NAME":"EARTH","REV_AT_EPOCH":"8209","DECAY_DATE":null,"APOAPSIS":"548.494","GP_ID":"207999358","OBJECT_NAME":"STARLINK-2112","FILE":"3512432","MEAN_ELEMENT_THEORY":"SGP4","PERIAPSIS":"545.873","EPHEMERIS_TYPE":"0","TLE_LINE1":"1 47391U 21005AU  22193.69613312  .00005703  00000-0  40135-3 0  9991","OBJECT_TYPE":"PAYLOAD","EPOCH":"2022-07-12T16:42:25.901568","ELEMENT_SET_NO":"999","MEAN_MOTION":"15.06409783"}];
